[{"OBJECT_NAME":"STARLINK-2509","OBJECT_ID":"2021-036AU","EPOCH":"2026-03-10T00:00:02.999808","MEAN_MOTION":15.19626094,"ECCENTRICITY":0.00012663,"INCLINATION":53.1115,"RA_OF_ASC_NODE":99.8305,"ARG_OF_PERICENTER":108.7705,"MEAN_ANOMALY":158.1349,"EPHEMERIS_TYPE":0,"CLASSIFICATION_TYPE":"U","NORAD_CAT_ID":48318,"ELEMENT_SET_NO":999,"REV_AT_EPOCH":569,"BSTAR":0.052634889,"MEAN_MOTION_DOT":0.01241997,"MEAN_MOTION_DDOT":0},{"OBJECT_NAME":"STARLINK-4346","OBJECT_ID":"2022-077AG","EPOCH":"2026-03-09T23:20:05.829216","MEAN_MOTION":15.20483722,"ECCENTRICITY":0.00045407,"INCLINATION":97.6378,"RA_OF_ASC_NODE":257.0949,"ARG_OF_PERICENTER":212.0804,"MEAN_ANOMALY":148.0155,"EPHEMERIS_TYPE":0,"CLASSIFICATION_TYPE":"U","NORAD_CAT_ID":53073,"ELEMENT_SET_NO":999,"REV_AT_EPOCH":20134,"BSTAR":0.00030178555,"MEAN_MOTION_DOT":6.523e-5,"MEAN_MOTION_DDOT":0}]
